[{"OBJECT_NAME":"ONEWEB-0592","OBJECT_ID":"2022-166S","EPOCH":"2025-12-08T06:06:30.329280","MEAN_MOTION":13.21824875,"ECCENTRICITY":0.00017315,"INCLINATION":87.9225,"RA_OF_ASC_NODE":282.0355,"ARG_OF_PERICENTER":80.1497,"MEAN_ANOMALY":279.9833,"EPHEMERIS_TYPE":0,"CLASSIFICATION_TYPE":"U","NORAD_CAT_ID":54658,"ELEMENT_SET_NO":999,"REV_AT_EPOCH":14621,"BSTAR":0.00032925693,"MEAN_MOTION_DOT":1.49e-6,"MEAN_MOTION_DDOT":0},{"OBJECT_NAME":"ONEWEB-0593","OBJECT_ID":"2022-166T","EPOCH":"2025-12-08T06:39:41.363712","MEAN_MOTION":13.21825986,"ECCENTRICITY":0.00019233,"INCLINATION":87.9215,"RA_OF_ASC_NODE":282.0582,"ARG_OF_PERICENTER":81.1562,"MEAN_ANOMALY":278.979,"EPHEMERIS_TYPE":0,"CLASSIFICATION_TYPE":"U","NORAD_CAT_ID":54659,"ELEMENT_SET_NO":999,"REV_AT_EPOCH":14632,"BSTAR":0.00028983506,"MEAN_MOTION_DOT":1.33e-6,"MEAN_MOTION_DDOT":0},{"OBJECT_NAME":"ONEWEB-0594","OBJECT_ID":"2022-166U","EPOCH":"2025-12-08T07:08:06.728640","MEAN_MOTION":13.21824173,"ECCENTRICITY":0.00018664,"INCLINATION":87.9213,"RA_OF_ASC_NODE":282.0722,"ARG_OF_PERICENTER":76.4398,"MEAN_ANOMALY":283.6944,"EPHEMERIS_TYPE":0,"CLASSIFICATION_TYPE":"U","NORAD_CAT_ID":54660,"ELEMENT_SET_NO":999,"REV_AT_EPOCH":14634,"BSTAR":0.00011827572,"MEAN_MOTION_DOT":6.2e-7,"MEAN_MOTION_DDOT":0},{"OBJECT_NAME":"ONEWEB-0595","OBJECT_ID":"2022-166V","EPOCH":"2025-12-08T06:34:55.568064","MEAN_MOTION":13.21823996,"ECCENTRICITY":0.00017471,"INCLINATION":87.9213,"RA_OF_ASC_NODE":282.0498,"ARG_OF_PERICENTER":71.757,"MEAN_ANOMALY":288.3754,"EPHEMERIS_TYPE":0,"CLASSIFICATION_TYPE":"U","NORAD_CAT_ID":54661,"ELEMENT_SET_NO":999,"REV_AT_EPOCH":14631,"BSTAR":0.00026762826,"MEAN_MOTION_DOT":1.24e-6,"MEAN_MOTION_DDOT":0},{"OBJECT_NAME":"ONEWEB-0596","OBJECT_ID":"2022-166W","EPOCH":"2025-12-08T05:57:00.955872","MEAN_MOTION":13.21823786,"ECCENTRICITY":0.00017449,"INCLINATION":87.9213,"RA_OF_ASC_NODE":282.0719,"ARG_OF_PERICENTER":76.9061,"MEAN_ANOMALY":283.2267,"EPHEMERIS_TYPE":0,"CLASSIFICATION_TYPE":"U","NORAD_CAT_ID":54662,"ELEMENT_SET_NO":999,"REV_AT_EPOCH":14631,"BSTAR":0.00037307713,"MEAN_MOTION_DOT":1.67e-6,"MEAN_MOTION_DDOT":0},{"OBJECT_NAME":"ONEWEB-0597","OBJECT_ID":"2022-166X","EPOCH":"2025-12-08T07:19:58.166112","MEAN_MOTION":13.21824682,"ECCENTRICITY":0.00018162,"INCLINATION":87.9215,"RA_OF_ASC_NODE":282.0651,"ARG_OF_PERICENTER":82.0843,"MEAN_ANOMALY":278.0497,"EPHEMERIS_TYPE":0,"CLASSIFICATION_TYPE":"U","NORAD_CAT_ID":54663,"ELEMENT_SET_NO":999,"REV_AT_EPOCH":14632,"BSTAR":9.3099668e-5,"MEAN_MOTION_DOT":5.1e-7,"MEAN_MOTION_DDOT":0},{"OBJECT_NAME":"ONEWEB-0600","OBJECT_ID":"2022-166Y","EPOCH":"2025-12-08T06:53:53.596896","MEAN_MOTION":13.21824745,"ECCENTRICITY":0.00019269,"INCLINATION":87.9214,"RA_OF_ASC_NODE":282.0595,"ARG_OF_PERICENTER":80.675,"MEAN_ANOMALY":279.4602,"EPHEMERIS_TYPE":0,"CLASSIFICATION_TYPE":"U","NORAD_CAT_ID":54664,"ELEMENT_SET_NO":999,"REV_AT_EPOCH":14629,"BSTAR":0.00031309509,"MEAN_MOTION_DOT":1.42e-6,"MEAN_MOTION_DDOT":0},{"OBJECT_NAME":"ONEWEB-0601","OBJECT_ID":"2022-166Z","EPOCH":"2025-12-08T06:42:02.802240","MEAN_MOTION":13.21824569,"ECCENTRICITY":0.00017774,"INCLINATION":87.9214,"RA_OF_ASC_NODE":282.0791,"ARG_OF_PERICENTER":86.9623,"MEAN_ANOMALY":273.1714,"EPHEMERIS_TYPE":0,"CLASSIFICATION_TYPE":"U","NORAD_CAT_ID":54665,"ELEMENT_SET_NO":999,"REV_AT_EPOCH":14648,"BSTAR":0.00022136894,"MEAN_MOTION_DOT":1.04e-6,"MEAN_MOTION_DDOT":0},{"OBJECT_NAME":"ONEWEB-0602","OBJECT_ID":"2022-166AA","EPOCH":"2025-12-08T07:40:07.088736","MEAN_MOTION":13.21826446,"ECCENTRICITY":0.00021522,"INCLINATION":87.9217,"RA_OF_ASC_NODE":282.0752,"ARG_OF_PERICENTER":81.2079,"MEAN_ANOMALY":278.9299,"EPHEMERIS_TYPE":0,"CLASSIFICATION_TYPE":"U","NORAD_CAT_ID":54666,"ELEMENT_SET_NO":999,"REV_AT_EPOCH":14633,"BSTAR":0.00017790225,"MEAN_MOTION_DOT":8.6e-7,"MEAN_MOTION_DDOT":0},{"OBJECT_NAME":"ONEWEB-0603","OBJECT_ID":"2022-166AB","EPOCH":"2025-12-08T05:59:23.858880","MEAN_MOTION":13.21827695,"ECCENTRICITY":0.000187,"INCLINATION":87.9225,"RA_OF_ASC_NODE":282.0278,"ARG_OF_PERICENTER":82.503,"MEAN_ANOMALY":277.6316,"EPHEMERIS_TYPE":0,"CLASSIFICATION_TYPE":"U","NORAD_CAT_ID":54667,"ELEMENT_SET_NO":999,"REV_AT_EPOCH":14625,"BSTAR":0.00033250586,"MEAN_MOTION_DOT":1.5e-6,"MEAN_MOTION_DDOT":0},{"OBJECT_NAME":"ONEWEB-0604","OBJECT_ID":"2022-166AC","EPOCH":"2025-12-08T07:31:48.302400","MEAN_MOTION":13.21828972,"ECCENTRICITY":0.00018767,"INCLINATION":87.9216,"RA_OF_ASC_NODE":282.0351,"ARG_OF_PERICENTER":76.1872,"MEAN_ANOMALY":283.9471,"EPHEMERIS_TYPE":0,"CLASSIFICATION_TYPE":"U","NORAD_CAT_ID":54668,"ELEMENT_SET_NO":999,"REV_AT_EPOCH":14622,"BSTAR":0.00020263473,"MEAN_MOTION_DOT":9.7e-7,"MEAN_MOTION_DDOT":0},{"OBJECT_NAME":"ONEWEB-0605","OBJECT_ID":"2022-166AD","EPOCH":"2025-12-08T07:22:20.219808","MEAN_MOTION":13.21824482,"ECCENTRICITY":0.00014836,"INCLINATION":87.9214,"RA_OF_ASC_NODE":282.0645,"ARG_OF_PERICENTER":97.5541,"MEAN_ANOMALY":262.5762,"EPHEMERIS_TYPE":0,"CLASSIFICATION_TYPE":"U","NORAD_CAT_ID":54669,"ELEMENT_SET_NO":999,"REV_AT_EPOCH":14629,"BSTAR":0.0002567566,"MEAN_MOTION_DOT":1.19e-6,"MEAN_MOTION_DDOT":0},{"OBJECT_NAME":"ONEWEB-0606","OBJECT_ID":"2022-166AE","EPOCH":"2025-12-08T06:04:08.636736","MEAN_MOTION":13.2182534,"ECCENTRICITY":0.0001779,"INCLINATION":87.9217,"RA_OF_ASC_NODE":282.0865,"ARG_OF_PERICENTER":72.4418,"MEAN_ANOMALY":287.691,"EPHEMERIS_TYPE":0,"CLASSIFICATION_TYPE":"U","NORAD_CAT_ID":54670,"ELEMENT_SET_NO":999,"REV_AT_EPOCH":14634,"BSTAR":0.00039937938,"MEAN_MOTION_DOT":1.78e-6,"MEAN_MOTION_DDOT":0},{"OBJECT_NAME":"ONEWEB-0607","OBJECT_ID":"2022-166AF","EPOCH":"2025-12-08T07:05:44.945376","MEAN_MOTION":13.21824664,"ECCENTRICITY":0.00018856,"INCLINATION":87.9216,"RA_OF_ASC_NODE":282.0416,"ARG_OF_PERICENTER":82.7106,"MEAN_ANOMALY":277.4242,"EPHEMERIS_TYPE":0,"CLASSIFICATION_TYPE":"U","NORAD_CAT_ID":54671,"ELEMENT_SET_NO":999,"REV_AT_EPOCH":14632,"BSTAR":0.00013562636,"MEAN_MOTION_DOT":6.9e-7,"MEAN_MOTION_DDOT":0},{"OBJECT_NAME":"ONEWEB-0608","OBJECT_ID":"2022-166AG","EPOCH":"2025-12-08T07:15:12.722976","MEAN_MOTION":13.21824101,"ECCENTRICITY":0.00017277,"INCLINATION":87.9223,"RA_OF_ASC_NODE":282.0276,"ARG_OF_PERICENTER":96.8177,"MEAN_ANOMALY":263.3154,"EPHEMERIS_TYPE":0,"CLASSIFICATION_TYPE":"U","NORAD_CAT_ID":54672,"ELEMENT_SET_NO":999,"REV_AT_EPOCH":14633,"BSTAR":6.083881e-5,"MEAN_MOTION_DOT":3.8e-7,"MEAN_MOTION_DDOT":0},{"OBJECT_NAME":"ONEWEB-0610","OBJECT_ID":"2022-166AH","EPOCH":"2025-12-08T06:46:46.515648","MEAN_MOTION":13.2182374,"ECCENTRICITY":0.00017917,"INCLINATION":87.9214,"RA_OF_ASC_NODE":282.0648,"ARG_OF_PERICENTER":97.5556,"MEAN_ANOMALY":262.5782,"EPHEMERIS_TYPE":0,"CLASSIFICATION_TYPE":"U","NORAD_CAT_ID":54673,"ELEMENT_SET_NO":999,"REV_AT_EPOCH":14623,"BSTAR":2.770897e-5,"MEAN_MOTION_DOT":2.4e-7,"MEAN_MOTION_DDOT":0}]
