ONEWEB-0592             
1 54658U 22166S   25342.25451770  .00000149  00000+0  32926-3 0  9990
2 54658  87.9225 282.0355 0001731  80.1497 279.9833 13.21824875146215
ONEWEB-0593             
1 54659U 22166T   25342.27756208  .00000133  00000+0  28984-3 0  9999
2 54659  87.9215 282.0582 0001923  81.1562 278.9790 13.21825986146321
ONEWEB-0594             
1 54660U 22166U   25342.29730010  .00000062  00000+0  11828-3 0  9996
2 54660  87.9213 282.0722 0001866  76.4398 283.6944 13.21824173146340
ONEWEB-0595             
1 54661U 22166V   25342.27425426  .00000124  00000+0  26763-3 0  9990
2 54661  87.9213 282.0498 0001747  71.7570 288.3754 13.21823996146319
ONEWEB-0596             
1 54662U 22166W   25342.24792773  .00000167  00000+0  37308-3 0  9994
2 54662  87.9213 282.0719 0001744  76.9061 283.2267 13.21823786146315
ONEWEB-0597             
1 54663U 22166X   25342.30553433  .00000051  00000+0  93100-4 0  9995
2 54663  87.9215 282.0651 0001816  82.0843 278.0497 13.21824682146323
ONEWEB-0600             
1 54664U 22166Y   25342.28742589  .00000142  00000+0  31310-3 0  9990
2 54664  87.9214 282.0595 0001926  80.6750 279.4602 13.21824745146292
ONEWEB-0601             
1 54665U 22166Z   25342.27919910  .00000104  00000+0  22137-3 0  9999
2 54665  87.9214 282.0791 0001777  86.9623 273.1714 13.21824569146483
ONEWEB-0602             
1 54666U 22166AA  25342.31952649  .00000086  00000+0  17790-3 0  9999
2 54666  87.9217 282.0752 0002152  81.2079 278.9299 13.21826446146336
ONEWEB-0603             
1 54667U 22166AB  25342.24958170  .00000150  00000+0  33251-3 0  9999
2 54667  87.9225 282.0278 0001870  82.5030 277.6316 13.21827695146250
ONEWEB-0604             
1 54668U 22166AC  25342.31375350  .00000097  00000+0  20263-3 0  9990
2 54668  87.9216 282.0351 0001876  76.1872 283.9471 13.21828972146220
ONEWEB-0605             
1 54669U 22166AD  25342.30717847  .00000119  00000+0  25676-3 0  9999
2 54669  87.9214 282.0645 0001483  97.5541 262.5762 13.21824482146294
ONEWEB-0606             
1 54670U 22166AE  25342.25287774  .00000178  00000+0  39938-3 0  9997
2 54670  87.9217 282.0865 0001779  72.4418 287.6910 13.21825340146349
ONEWEB-0607             
1 54671U 22166AF  25342.29565909  .00000069  00000+0  13563-3 0  9996
2 54671  87.9216 282.0416 0001885  82.7106 277.4242 13.21824664146328
ONEWEB-0608             
1 54672U 22166AG  25342.30223059  .00000038  00000+0  60839-4 0  9991
2 54672  87.9223 282.0276 0001727  96.8177 263.3154 13.21824101146333
ONEWEB-0610             
1 54673U 22166AH  25342.28248282  .00000024  00000+0  27709-4 0  9998
2 54673  87.9214 282.0648 0001791  97.5556 262.5782 13.21823740146232
